1 28654U 05018A   15138.44693882  .00000204  00000-0  13647-3 0  9991,2 28654 099.1827 130.3665 0015116 047.1335 313.1102 14.12195895514875
1 28654U 05018A   15139.50969859  .00000204  00000-0  13613-3 0  9992,2 28654 099.1828 131.4550 0015068 044.3500 315.8875 14.12196652515026
1 28654U 05018A   15140.50160761  .00000172  00000-0  11916-3 0  9997,2 28654 099.1828 132.4709 0015036 041.7498 318.4817 14.12197014515168
1 28654U 05018A   15141.49351632  .00000157  00000-0  11071-3 0  9990,2 28654 099.1828 133.4869 0014999 039.1409 321.0844 14.12197354515309
1 28654U 05018A   15142.48542465  .00000160  00000-0  11221-3 0  9997,2 28654 099.1828 134.5028 0014961 036.5151 323.7037 14.12197740515449
1 28654U 05018A   15143.54818324  .00000146  00000-0  10479-3 0  9993,2 28654 099.1829 135.5914 0014930 033.6071 326.6044 14.12198017515594
1 28654U 05018A   15144.46924032  .00000140  00000-0  10157-3 0  9996,2 28654 099.1829 136.5348 0014895 031.1118 329.0932 14.12198364515724
1 28654U 05018A   15145.46114759  .00000129  00000-0  95684-4 0  9990,2 28654 099.1829 137.5507 0014833 028.4732 331.7246 14.12198757515864
1 28654U 05018A   15146.52390515  .00000098  00000-0  78881-4 0  9999,2 28654 099.1829 138.6393 0014777 025.5945 334.5954 14.12199089516014
1 28654U 05018A   15147.44496143  .00000106  00000-0  82815-4 0  9997,2 28654 099.1829 139.5826 0014731 023.0767 337.1062 14.12199520516143
1 28654U 05018A   15148.50771850  .00000100  00000-0  79979-4 0  9997,2 28654 099.1830 140.6712 0014672 020.2293 339.9456 14.12199911516296
1 28654U 05018A   15148.72027760  .00000298  00000-0  16239-3 0  9992,2 28654 099.1823 140.8903 0014722 019.2768 340.9438 14.12201241516442
1 28654U 05018A   15149.57047531  .00000118  00000-0  89668-4 0  9992,2 28654 099.1830 141.7598 0014625 017.3451 342.8216 14.12200324516446
1 28654U 05018A   15150.49153101  .00000123  00000-0  92277-4 0  9992,2 28654 099.1830 142.7032 0014581 014.8464 345.3132 14.12200598516579
1 28654U 05018A   15151.48343682  .00000245  00000-0  15869-3 0  9993,2 28654 099.1831 143.7192 0014535 012.1224 348.0294 14.12201498516717
1 28654U 05018A   15152.54619286  .00000152  00000-0  10794-3 0  9996,2 28654 099.1831 144.8077 0014492 009.1725 350.9707 14.12201293516865
1 28654U 05018A   15153.46724772  .00000109  00000-0  84792-4 0  9997,2 28654 099.1831 145.7512 0014430 006.6355 353.5004 14.12201423516990
1 28654U 05018A   15154.45915277  .00000098  00000-0  78643-4 0  9994,2 28654 099.1832 146.7672 0014376 003.8577 356.2702 14.12201753517131
1 28654U 05018A   15155.45105763  .00000101  00000-0  80608-4 0  9995,2 28654 099.1832 147.7832 0014327 001.0662 359.0536 14.12202166517271
1 28654U 05018A   15156.51381257  .00000113  00000-0  86900-4 0  9991,2 28654 099.1833 148.8718 0014265 358.0914 002.0199 14.12202633517429
1 28654U 05018A   15157.50571699  .00000147  00000-0  10564-3 0  9991,2 28654 099.1833 149.8879 0014219 355.3145 004.7891 14.12203147517567
1 28654U 05018A   15158.49762126  .00000165  00000-0  11494-3 0  9990,2 28654 099.1833 150.9039 0014159 352.5531 007.5428 14.12203525517702
1 28654U 05018A   15159.48952520  .00000214  00000-0  14179-3 0  9997,2 28654 099.1833 151.9200 0014101 349.7707 010.3174 14.12204077517841
1 28654U 05018A   15159.91462667 +.00000227 +00000-0 +14913-3 0  9993,2 28654 099.1833 152.3554 0014078 348.5537 011.5311 14.12204296517815
1 28654U 05018A   15160.48142876  .00000223  00000-0  14661-3 0  9990,2 28654 099.1833 152.9361 0014049 346.9622 013.1183 14.12204450517987
1 28654U 05018A   15160.90653020 +.00000230 +00000-0 +15074-3 0  9992,2 28654 099.1833 153.3715 0014022 345.7236 014.3536 14.12204624517959
1 28654U 05018A   15161.47333204  .00000223  00000-0  14688-3 0  9996,2 28654 099.1833 153.9521 0013989 344.1170 015.9560 14.12204824518127
1 28654U 05018A   15161.96928351 +.00000230 +00000-0 +15074-3 0  9991,2 28654 099.1833 154.4601 0013966 342.6640 017.4052 14.12205093518102
1 28654U 05018A   15162.96118616 +.00000217 +00000-0 +14352-3 0  9990,2 28654 099.1834 155.4761 0013915 339.7805 020.2813 14.12205547518241
1 28654U 05018A   15163.95308854 +.00000210 +00000-0 +13957-3 0  9998,2 28654 099.1834 156.4922 0013876 336.9044 023.1502 14.12206069518383
1 28654U 05018A   15164.94499057 +.00000205 +00000-0 +13706-3 0  9990,2 28654 099.1835 157.5083 0013825 334.0403 026.0072 14.12206628518527
1 28654U 05018A   15165.93689234 +.00000175 +00000-0 +12073-3 0  9990,2 28654 099.1835 158.5243 0013766 331.1715 028.8694 14.12207017518662
1 28654U 05018A   15166.36199301 +.00000176 +00000-0 +12108-3 0  9999,2 28654 099.1835 158.9598 0013745 329.9513 030.0868 14.12207236518815
1 28654U 05018A   15167.92069515 +.00000170 +00000-0 +11803-3 0  9990,2 28654 099.1836 160.5565 0013642 325.4048 034.6234 14.12207876518940
1 28654U 05018A   15168.55834582  .00000165  00000-0  11522-3 0  9996,2 28654 099.1836 161.2097 0013611 323.5580 036.4663 14.12208090519120
1 28654U 05018A   15168.91259616 +.00000168 +00000-0 +11709-3 0  9995,2 28654 099.1836 161.5726 0013598 322.5132 037.5089 14.12208233519086
1 28654U 05018A   15169.55024673  .00000141  00000-0  10208-3 0  9993,2 28654 099.1837 162.2258 0013581 320.6674 039.3509 14.12208321519262
1 28654U 05018A   15170.54214734  .00000124  00000-0  92869-4 0  9998,2 28654 099.1837 163.2419 0013544 317.7297 042.2829 14.12208654519402
1 28654U 05018A   15171.46319770  .00000121  00000-0  91176-4 0  9993,2 28654 099.1837 164.1854 0013520 314.9961 045.0113 14.12209041519538
1 28654U 05018A   15172.45509792  .00000111  00000-0  86022-4 0  9991,2 28654 099.1838 165.2015 0013492 312.0487 047.9535 14.12209429519674
1 28654U 05018A   15173.44699800  .00000107  00000-0  83653-4 0  9993,2 28654 099.1838 166.2176 0013453 309.0843 050.9130 14.12209848519818
1 28654U 05018A   15174.50974772  .00000119  00000-0  90088-4 0  9998,2 28654 099.1838 167.3062 0013399 305.8875 054.1051 14.12210398519968
1 28654U 05018A   15175.50164743  .00000132  00000-0  97514-4 0  9994,2 28654 099.1839 168.3223 0013358 302.9231 057.0654 14.12210819520105
1 28654U 05018A   15176.49354703  .00000125  00000-0  93607-4 0  9991,2 28654 099.1839 169.3384 0013320 299.9821 060.0027 14.12211044520247
1 28654U 05018A   15177.41459648  .00000130  00000-0  95969-4 0  9997,2 28654 099.1839 170.2819 0013289 297.2367 062.7449 14.12211304520371
1 28654U 05018A   15178.47734555  .00000121  00000-0  91409-4 0  9992,2 28654 099.1840 171.3707 0013270 294.0834 065.8948 14.12211582520528
1 28654U 05018A   15179.46924438  .00000115  00000-0  87901-4 0  9998,2 28654 099.1840 172.3868 0013249 291.0676 068.9077 14.12211939520662
1 28654U 05018A   15180.46114308  .00000090  00000-0  74673-4 0  9991,2 28654 099.1841 173.4029 0013238 288.0700 071.9028 14.12212228520804
1 28654U 05018A   15181.52389153  .00000072  00000-0  64456-4 0  9999,2 28654 099.1841 174.4917 0013227 284.8480 075.1225 14.12212577520956
1 28654U 05018A   15182.51577843  .00000061  00000-0  58898-4 0  9995,2 28654 099.1842 175.5079 0013213 281.8227 078.1461 14.12212911521092
1 28654U 05018A   15183.50767683  .00000068  00000-0  62533-4 0  9996,2 28654 099.1843 176.5240 0013199 278.8506 081.1170 14.12213241521237
1 28654U 05018A   15184.42872529  .00000086  00000-0  72477-4 0  9992,2 28654 099.1843 177.4676 0013184 276.0528 083.9140 14.12213563521366
1 28654U 05018A   15185.49147342  .00000127  00000-0  94770-4 0  9994,2 28654 099.1844 178.5564 0013174 272.8381 087.1282 14.12213963521519
1 28654U 05018A   15186.48337128  .00000191  00000-0  12926-3 0  9990,2 28654 099.1844 179.5726 0013167 269.8004 090.1658 14.12214582521654
1 28654U 05018A   15187.47526906  .00000149  00000-0  10639-3 0  9996,2 28654 099.1844 180.5888 0013169 266.7445 093.2219 14.12214656521796
1 28654U 05018A   15188.46716666  .00000138  00000-0  10065-3 0  9991,2 28654 099.1845 181.6050 0013182 263.7493 096.2176 14.12214942521934
1 28654U 05018A   15189.45906412  .00000140  00000-0  10183-3 0  9995,2 28654 099.1845 182.6212 0013196 260.7598 099.2080 14.12215329522076
1 28654U 05018A   15190.45096134  .00000139  00000-0  10100-3 0  9995,2 28654 099.1846 183.6375 0013209 257.7447 102.2244 14.12215740522212
1 28654U 05018A   15191.51370817  .00000102  00000-0  81010-4 0  9995,2 28654 099.1847 184.7263 0013219 254.5355 105.4355 14.12215968522361
1 28654U 05018A   15192.50560487  .00000181  00000-0  12372-3 0  9990,2 28654 099.1848 185.7425 0013227 251.5094 108.4639 14.12216814522504
1 28654U 05018A   15193.42665177  .00000172  00000-0  11898-3 0  9996,2 28654 099.1848 186.6861 0013237 248.6943 111.2814 14.12217083522639
1 28654U 05018A   15194.48939802  .00000155  00000-0  10987-3 0  9991,2 28654 099.1849 187.7750 0013251 245.4652 114.5138 14.12217322522784
1 28654U 05018A   15195.48129416  .00000161  00000-0  11291-3 0  9990,2 28654 099.1849 188.7912 0013275 242.4136 117.5686 14.12217723522927
1 28654U 05018A   15196.47319015  .00000136  00000-0  99337-4 0  9996,2 28654 099.1849 189.8075 0013305 239.3948 120.5911 14.12217960523063
1 28654U 05018A   15197.53593557  .00000092  00000-0  75370-4 0  9991,2 28654 099.1850 190.8963 0013341 236.1886 123.8015 14.12218194523217
1 28654U 05018A   15198.45698148  .00000082  00000-0  69814-4 0  9990,2 28654 099.1851 191.8399 0013367 233.4965 126.4974 14.12218528523346
1 28654U 05018A   15199.44887701  .00000067  00000-0  61951-4 0  9992,2 28654 099.1852 192.8562 0013397 230.5631 129.4354 14.12218855523484
1 28654U 05018A   15200.51162210  .00000065  00000-0  60825-4 0  9991,2 28654 099.1853 193.9450 0013428 227.4062 132.5977 14.12219192523639
1 28654U 05018A   15201.50351746  .00000057  00000-0  56301-4 0  9990,2 28654 099.1854 194.9613 0013458 224.4350 135.5741 14.12219383523771
1 28654U 05018A   15202.49541273  .00000077  00000-0  67206-4 0  9993,2 28654 099.1855 195.9776 0013489 221.4711 138.5437 14.12219666523910
1 28654U 05018A   15203.48730786  .00000093  00000-0  75867-4 0  9992,2 28654 099.1855 196.9938 0013530 218.4982 141.5224 14.12219919524059
